{"type": "FeatureCollection", "features": [ {"type": "Feature", "properties": {"norad_id": 40115, "name": "WORLDVIEW-3 (WV-3)", "group": "resource", "lat": 15.292669856847036, "lon": 46.51554450713765, "alt_km": 615.4419052923176, "timestamp": "2025-12-02T06:27:52.678172+00:00", "meta": {"OBJECT_NAME": "WORLDVIEW-3 (WV-3)", "OBJECT_ID": "2014-048A", "EPOCH": "2025-12-01T19:04:43.535712", "MEAN_MOTION": 14.85465255, "ECCENTRICITY": 0.000401, "INCLINATION": 97.8628, "RA_OF_ASC_NODE": 48.2126, "ARG_OF_PERICENTER": 224.8166, "MEAN_ANOMALY": 135.2726, "EPHEMERIS_TYPE": 0, "CLASSIFICATION_TYPE": "U", "NORAD_CAT_ID": 40115, "ELEMENT_SET_NO": 999, "REV_AT_EPOCH": 61261, "BSTAR": 0.0001601, "MEAN_MOTION_DOT": 1.327e-05, "MEAN_MOTION_DDOT": 0}, "tle": {"line1": "1 40115U 14048A   25335.79494833  .00001327  00000+0  16010-3 0  9996", "line2": "2 40115  97.8628  48.2126 0004010 224.8166 135.2726 14.85465255612617"}}, "geometry": {"type": "Point", "coordinates": [46.51554450713765, 15.292669856847036]}}, {"type": "Feature", "properties": {"norad_id": 40118, "name": "GAOFEN-2", "group": "resource", "lat": 16.73349650358831, "lon": 32.98341746348112, "alt_km": 631.45046630878, "timestamp": "2025-12-02T06:27:52.678183+00:00", "meta": {"OBJECT_NAME": "GAOFEN-2", "OBJECT_ID": "2014-049A", "EPOCH": "2025-12-01T20:39:23.639328", "MEAN_MOTION": 14.80576342, "ECCENTRICITY": 0.0008131, "INCLINATION": 98.04, "RA_OF_ASC_NODE": 35.0096, "ARG_OF_PERICENTER": 144.3058, "MEAN_ANOMALY": 215.8699, "EPHEMERIS_TYPE": 0, "CLASSIFICATION_TYPE": "U", "NORAD_CAT_ID": 40118, "ELEMENT_SET_NO": 999, "REV_AT_EPOCH": 61003, "BSTAR": 0.00011453, "MEAN_MOTION_DOT": 8.25e-06, "MEAN_MOTION_DDOT": 0}, "tle": {"line1": "1 40118U 14049A   25335.86069027  .00000825  00000+0  11453-3 0  9999", "line2": "2 40118  98.0400  35.0096 0008131 144.3058 215.8699 14.80576342610038"}}, "geometry": {"type": "Point", "coordinates": [32.98341746348112, 16.73349650358831]}}, {"type": "Feature", "properties": {"norad_id": 40143, "name": "YAOGAN-21", "group": "resource", "lat": 16.180252463118162, "lon": -157.86600580310903, "alt_km": 496.2277149210504, "timestamp": "2025-12-02T06:27:52.678193+00:00", "meta": {"OBJECT_NAME": "YAOGAN-21", "OBJECT_ID": "2014-053A", "EPOCH": "2025-12-01T20:17:29.942880", "MEAN_MOTION": 15.23453581, "ECCENTRICITY": 0.0010326, "INCLINATION": 97.178, "RA_OF_ASC_NODE": 19.6329, "ARG_OF_PERICENTER": 74.645, "MEAN_ANOMALY": 285.5928, "EPHEMERIS_TYPE": 0, "CLASSIFICATION_TYPE": "U", "NORAD_CAT_ID": 40143, "ELEMENT_SET_NO": 999, "REV_AT_EPOCH": 62488, "BSTAR": 0.000317, "MEAN_MOTION_DOT": 7.499e-05, "MEAN_MOTION_DDOT": 0}, "tle": {"line1": "1 40143U 14053A   25335.84548545  .00007499  00000+0  31700-3 0  9998", "line2": "2 40143  97.1780  19.6329 0010326  74.6450 285.5928 15.23453581624888"}}, "geometry": {"type": "Point", "coordinates": [-157.86600580310903, 16.180252463118162]}}, {"type": "Feature", "properties": {"norad_id": 40275, "name": "YAOGAN-22", "group": "resource", "lat": -78.9282273411416, "lon": -136.3947486281226, "alt_km": 1204.7077814950699, "timestamp": "2025-12-02T06:27:52.678204+00:00", "meta": {"OBJECT_NAME": "YAOGAN-22", "OBJECT_ID": "2014-063A", "EPOCH": "2025-12-01T19:58:59.855808", "MEAN_MOTION": 13.15522096, "ECCENTRICITY": 0.000586, "INCLINATION": 100.7417, "RA_OF_ASC_NODE": 119.0985, "ARG_OF_PERICENTER": 274.4986, "MEAN_ANOMALY": 85.5456, "EPHEMERIS_TYPE": 0, "CLASSIFICATION_TYPE": "U", "NORAD_CAT_ID": 40275, "ELEMENT_SET_NO": 999, "REV_AT_EPOCH": 53386, "BSTAR": 0.00013449, "MEAN_MOTION_DOT": 4e-08, "MEAN_MOTION_DDOT": 0}, "tle": {"line1": "1 40275U 14063A   25335.83263722  .00000004  00000+0  13449-3 0  9990", "line2": "2 40275 100.7417 119.0985 0005860 274.4986  85.5456 13.15522096533864"}}, "geometry": {"type": "Point", "coordinates": [-136.3947486281226, -78.9282273411416]}}, {"type": "Feature", "properties": {"norad_id": 40298, "name": "ASNARO", "group": "resource", "lat": 9.771152436836624, "lon": 51.19703004032197, "alt_km": 510.6507220065678, "timestamp": "2025-12-02T06:27:52.678215+00:00", "meta": {"OBJECT_NAME": "ASNARO", "OBJECT_ID": "2014-070A", "EPOCH": "2025-12-01T19:21:36.579168", "MEAN_MOTION": 15.19789533, "ECCENTRICITY": 0.0007042, "INCLINATION": 97.3671, "RA_OF_ASC_NODE": 52.0221, "ARG_OF_PERICENTER": 132.3118, "MEAN_ANOMALY": 227.8715, "EPHEMERIS_TYPE": 0, "CLASSIFICATION_TYPE": "U", "NORAD_CAT_ID": 40298, "ELEMENT_SET_NO": 999, "REV_AT_EPOCH": 61403, "BSTAR": 0.00051482, "MEAN_MOTION_DOT": 0.00010968, "MEAN_MOTION_DDOT": 0}, "tle": {"line1": "1 40298U 14070A   25335.80667337  .00010968  00000+0  51482-3 0  9999", "line2": "2 40298  97.3671  52.0221 0007042 132.3118 227.8715 15.19789533614039"}}, "geometry": {"type": "Point", "coordinates": [51.19703004032197, 9.771152436836624]}}, {"type": "Feature", "properties": {"norad_id": 40310, "name": "YAOGAN-24", "group": "resource", "lat": 12.122412615904267, "lon": -70.93492278635829, "alt_km": 632.9081460653506, "timestamp": "2025-12-02T06:27:52.678225+00:00", "meta": {"OBJECT_NAME": "YAOGAN-24", "OBJECT_ID": "2014-072A", "EPOCH": "2025-12-01T21:34:24.491712", "MEAN_MOTION": 14.76138145, "ECCENTRICITY": 0.0014161, "INCLINATION": 98.1217, "RA_OF_ASC_NODE": 106.9351, "ARG_OF_PERICENTER": 171.6975, "MEAN_ANOMALY": 188.4471, "EPHEMERIS_TYPE": 0, "CLASSIFICATION_TYPE": "U", "NORAD_CAT_ID": 40310, "ELEMENT_SET_NO": 999, "REV_AT_EPOCH": 59461, "BSTAR": 0.0001673, "MEAN_MOTION_DOT": 1.104e-05, "MEAN_MOTION_DDOT": 0}, "tle": {"line1": "1 40310U 14072A   25335.89889458  .00001104  00000+0  16730-3 0  9994", "line2": "2 40310  98.1217 106.9351 0014161 171.6975 188.4471 14.76138145594610"}}, "geometry": {"type": "Point", "coordinates": [-70.93492278635829, 12.122412615904267]}}, {"type": "Feature", "properties": {"norad_id": 40336, "name": "CBERS 4", "group": "resource", "lat": -2.306396819104345, "lon": 34.98190534813561, "alt_km": 777.1922316608179, "timestamp": "2025-12-02T06:27:52.678235+00:00", "meta": {"OBJECT_NAME": "CBERS 4", "OBJECT_ID": "2014-079A", "EPOCH": "2025-12-01T20:26:18.616704", "MEAN_MOTION": 14.35526982, "ECCENTRICITY": 0.0001402, "INCLINATION": 98.3324, "RA_OF_ASC_NODE": 34.2402, "ARG_OF_PERICENTER": 128.2137, "MEAN_ANOMALY": 231.9176, "EPHEMERIS_TYPE": 0, "CLASSIFICATION_TYPE": "U", "NORAD_CAT_ID": 40336, "ELEMENT_SET_NO": 999, "REV_AT_EPOCH": 57564, "BSTAR": 7.3391e-05, "MEAN_MOTION_DOT": 1.69e-06, "MEAN_MOTION_DDOT": 0}, "tle": {"line1": "1 40336U 14079A   25335.85160436  .00000169  00000+0  73391-4 0  9990", "line2": "2 40336  98.3324  34.2402 0001402 128.2137 231.9176 14.35526982575644"}}, "geometry": {"type": "Point", "coordinates": [34.98190534813561, -2.306396819104345]}}, {"type": "Feature", "properties": {"norad_id": 40362, "name": "YAOGAN-26", "group": "resource", "lat": 16.933788240352804, "lon": -24.84218606039496, "alt_km": 446.6320349669131, "timestamp": "2025-12-02T06:27:52.678245+00:00", "meta": {"OBJECT_NAME": "YAOGAN-26", "OBJECT_ID": "2014-088A", "EPOCH": "2025-12-01T21:01:34.334112", "MEAN_MOTION": 15.38713389, "ECCENTRICITY": 0.000747, "INCLINATION": 97.0643, "RA_OF_ASC_NODE": 336.9427, "ARG_OF_PERICENTER": 58.6412, "MEAN_ANOMALY": 301.5565, "EPHEMERIS_TYPE": 0, "CLASSIFICATION_TYPE": "U", "NORAD_CAT_ID": 40362, "ELEMENT_SET_NO": 999, "REV_AT_EPOCH": 60727, "BSTAR": 0.00050854, "MEAN_MOTION_DOT": 0.00019419, "MEAN_MOTION_DDOT": 0}, "tle": {"line1": "1 40362U 14088A   25335.87609183  .00019419  00000+0  50854-3 0  9994", "line2": "2 40362  97.0643 336.9427 0007470  58.6412 301.5565 15.38713389607279"}}, "geometry": {"type": "Point", "coordinates": [-24.84218606039496, 16.933788240352804]}}, {"type": "Feature", "properties": {"norad_id": 40376, "name": "SMAP", "group": "resource", "lat": -53.023075000455535, "lon": 150.20067445913259, "alt_km": 690.1272194955081, "timestamp": "2025-12-02T06:27:52.678256+00:00", "meta": {"OBJECT_NAME": "SMAP", "OBJECT_ID": "2015-003A", "EPOCH": "2025-12-01T19:33:12.862080", "MEAN_MOTION": 14.63352951, "ECCENTRICITY": 0.000134, "INCLINATION": 98.1292, "RA_OF_ASC_NODE": 340.6961, "ARG_OF_PERICENTER": 89.9307, "MEAN_ANOMALY": 270.2048, "EPHEMERIS_TYPE": 0, "CLASSIFICATION_TYPE": "U", "NORAD_CAT_ID": 40376, "ELEMENT_SET_NO": 999, "REV_AT_EPOCH": 57875, "BSTAR": 0.00013247, "MEAN_MOTION_DOT": 6.37e-06, "MEAN_MOTION_DDOT": 0}, "tle": {"line1": "1 40376U 15003A   25335.81473220  .00000637  00000+0  13247-3 0  9999", "line2": "2 40376  98.1292 340.6961 0001340  89.9307 270.2048 14.63352951578750"}}, "geometry": {"type": "Point", "coordinates": [150.20067445913259, -53.023075000455535]}}, {"type": "Feature", "properties": {"norad_id": 40536, "name": "KOMPSAT-3A", "group": "resource", "lat": 36.94593182040515, "lon": 135.86626931478875, "alt_km": 431.2610958566029, "timestamp": "2025-12-02T06:27:52.678295+00:00", "meta": {"OBJECT_NAME": "KOMPSAT-3A", "OBJECT_ID": "2015-014A", "EPOCH": "2025-12-01T20:30:45.431136", "MEAN_MOTION": 15.43345634, "ECCENTRICITY": 0.0003518, "INCLINATION": 97.6769, "RA_OF_ASC_NODE": 309.6066, "ARG_OF_PERICENTER": 149.9699, "MEAN_ANOMALY": 210.175, "EPHEMERIS_TYPE": 0, "CLASSIFICATION_TYPE": "U", "NORAD_CAT_ID": 40536, "ELEMENT_SET_NO": 999, "REV_AT_EPOCH": 59127, "BSTAR": 0.00044223, "MEAN_MOTION_DOT": 0.00019653, "MEAN_MOTION_DDOT": 0}, "tle": {"line1": "1 40536U 15014A   25335.85469249  .00019653  00000+0  44223-3 0  9995", "line2": "2 40536  97.6769 309.6066 0003518 149.9699 210.1750 15.43345634591276"}}, "geometry": {"type": "Point", "coordinates": [135.86626931478875, 36.94593182040515]}}]}